id,park_name,address,park_type,latitude,longitude,area,size,size_rank
1,夏島公園,神奈川県横須賀市夏島町2-13,特殊公園（風致公園、動植物公園、歴史公園、墓園）,35.32355728,139.6478492,追浜エリア,409,小
2,追浜本町公園,神奈川県横須賀市追浜本町2-29-10,街区公園,35.32152996,139.6304888,追浜エリア,2411,中
3,追浜本町１丁目公園,神奈川県横須賀市追浜本町1-90-39,街区公園,35.32097682,139.6273283,追浜エリア,986,小
4,追浜本町１丁目第２公園,神奈川県横須賀市追浜本町1-90-63,街区公園,35.32021066,139.6270439,追浜エリア,196,小
5,追浜本町第２公園,神奈川県横須賀市追浜本町2-1-106,街区公園,35.31913449,139.6303166,追浜エリア,824,小
6,湘南鷹取６丁目公園,神奈川県横須賀市湘南鷹取6-88-2,街区公園,35.31617449,139.6150551,追浜エリア,3102,中
7,湘南鷹取１丁目第２公園,神奈川県横須賀市湘南鷹取1-69-250,街区公園,35.31539649,139.6198598,追浜エリア,388,小
8,鷹取公園,神奈川県横須賀市鷹取1-4-4,近隣公園,35.31511853,139.6235393,追浜エリア,12955,大
9,貝山緑地,神奈川県横須賀市浦郷町5-2931-63,その他,35.31377115,139.6426909,追浜エリア,45274,大
10,湘南鷹取５丁目第２公園,神奈川県横須賀市湘南鷹取5-40-71,街区公園,35.31258982,139.6167704,追浜エリア,5592,中
11,湘南鷹取５丁目公園,神奈川県横須賀市湘南鷹取5-52-62,街区公園,35.31198337,139.6136869,追浜エリア,5117,中
12,湘南鷹取１丁目公園,神奈川県横須賀市湘南鷹取1-3-38,街区公園,35.31119237,139.6179489,追浜エリア,4226,中
13,追浜東町１丁目第２公園,神奈川県横須賀市追浜東町1-51-2,街区公園,35.31064526,139.6309235,追浜エリア,886,小
14,平和公園,神奈川県横須賀市追浜町2-41-8,街区公園,35.31031498,139.6271351,追浜エリア,708,小
15,湘南鷹取４丁目公園,神奈川県横須賀市湘南鷹取4-4-237,街区公園,35.31027019,139.6167754,追浜エリア,396,小
16,追浜東町１丁目第４公園,神奈川県横須賀市追浜東町1-28-64,街区公園,35.3099833,139.6311149,追浜エリア,462,小
17,追浜町１丁目公園,神奈川県横須賀市追浜町1-40-15,街区公園,35.30953789,139.6244746,追浜エリア,579,小
18,湘南鷹取２丁目第４公園,神奈川県横須賀市湘南鷹取2-1-53,街区公園,35.30947368,139.6232624,追浜エリア,3299,中
19,追浜東町１丁目公園,神奈川県横須賀市追浜東町1-28-26,街区公園,35.30937594,139.630262,追浜エリア,1929,中
20,湘南鷹取４丁目第２公園,神奈川県横須賀市湘南鷹取4-50-2,街区公園,35.30931546,139.6122753,追浜エリア,9181,中
21,浦郷公園,神奈川県横須賀市浦郷町2-71,街区公園,35.30870273,139.6372949,追浜エリア,6419,中
22,湘南鷹取２丁目第３公園,神奈川県横須賀市湘南鷹取2-16-214,街区公園,35.30815867,139.6184326,追浜エリア,3574,中
23,追浜東町１丁目第３公園,神奈川県横須賀市追浜東町1-28-54,街区公園,35.30807,139.6288477,追浜エリア,263,小
24,湘南鷹取２丁目公園,神奈川県横須賀市湘南鷹取2-1-34,街区公園,35.30801378,139.6193806,追浜エリア,744,小
25,北郷公園,神奈川県横須賀市追浜町1-60-1,街区公園,35.30778225,139.6253499,追浜エリア,2268,中
26,追浜東町自然の広場,神奈川県横須賀市追浜東町1-19-2,街区公園,35.30755883,139.6302525,追浜エリア,876,小
27,日向公園,神奈川県横須賀市浦郷町1-67,街区公園,35.30729333,139.637954,追浜エリア,3911,中
28,湘南鷹取２丁目第２公園,神奈川県横須賀市湘南鷹取2-3-331,街区公園,35.30672401,139.6207568,追浜エリア,809,小
29,湘南鷹取３丁目公園,神奈川県横須賀市湘南鷹取3-16-315,街区公園,35.30625947,139.6175793,追浜エリア,1385,中
30,船越８丁目公園,神奈川県横須賀市船越町8-1-50,街区公園,35.30597143,139.632636,田浦エリア,2100,中
31,船越８丁目第２公園,神奈川県横須賀市船越町8-32-22,街区公園,35.30558547,139.6294757,田浦エリア,1266,中
32,湘南鷹取２丁目第５公園,神奈川県横須賀市湘南鷹取2-6-3,街区公園,35.30530647,139.6225329,追浜エリア,7078,中
33,船越８丁目第３公園,神奈川県横須賀市船越町8-32-73,街区公園,35.30474919,139.6311802,田浦エリア,983,小
34,湘南鷹取３丁目第２公園,神奈川県横須賀市湘南鷹取3-3-477,街区公園,35.30464972,139.6150286,追浜エリア,8598,中
35,船越６丁目第３公園,神奈川県横須賀市船越町6-16-31,街区公園,35.30462312,139.6279899,田浦エリア,2136,中
36,船越６丁目公園,神奈川県横須賀市船越町6-17-40,街区公園,35.30392899,139.6273347,田浦エリア,646,小
37,梅田公園,神奈川県横須賀市船越町7-58-22,街区公園,35.30347606,139.6320145,田浦エリア,2454,中
38,船越７丁目公園,神奈川県横須賀市船越町7-12-31,街区公園,35.30313919,139.6304477,田浦エリア,883,小
39,船越６丁目第２公園,神奈川県横須賀市船越町6-47-42,街区公園,35.30173181,139.6289023,田浦エリア,1717,中
40,船越１丁目公園,神奈川県横須賀市船越町1-5-8,街区公園,35.29891113,139.6285176,田浦エリア,6241,中
41,船越３丁目公園,神奈川県横須賀市船越町3-10-2,街区公園,35.29872275,139.623374,田浦エリア,8287,中
42,船越３丁目第２公園,神奈川県横須賀市船越町3-33-3,街区公園,35.29856589,139.6208384,田浦エリア,622,小
43,板取公園,神奈川県横須賀市船越町2-31-9,街区公園,35.29552929,139.6244838,田浦エリア,2472,中
44,池の谷戸公園,神奈川県横須賀市田浦町6-1-28,近隣公園,35.29526628,139.6262845,田浦エリア,16960,大
45,港が丘公園,神奈川県横須賀市港が丘1-1-91,街区公園,35.29503178,139.6301384,田浦エリア,5584,中
46,田浦公園,神奈川県横須賀市田浦町4-7-1,街区公園,35.29444759,139.6318817,田浦エリア,847,小
47,田の浦公園,神奈川県横須賀市長浦町1-20-1,街区公園,35.29109971,139.6457993,田浦エリア,2600,中
48,安針台公園,神奈川県横須賀市安針台31-35,街区公園,35.28992859,139.6474434,逸見エリア,6031,中
49,田浦１丁目公園,神奈川県横須賀市田浦町1-49-1,街区公園,35.28872294,139.6361227,田浦エリア,411,小
50,吉倉公園,神奈川県横須賀市吉倉町1-104,街区公園,35.28814793,139.6487535,逸見エリア,3215,中
51,長浦２丁目公園,神奈川県横須賀市長浦町2-45-9,街区公園,35.28694054,139.6431024,田浦エリア,227,小
52,長浦３丁目第２公園,神奈川県横須賀市長浦町3-106-1,街区公園,35.28428005,139.6413823,田浦エリア,517,小
53,ウェルシティ公園,神奈川県横須賀市西逸見町1-38-26,街区公園,35.28384288,139.6523914,逸見エリア,2313,中
54,逸見小学校前公園,神奈川県横須賀市西逸見町1-32,街区公園,35.28331897,139.650772,逸見エリア,874,小
55,長浦３丁目公園,神奈川県横須賀市長浦町3-60-3,街区公園,35.28211412,139.636071,田浦エリア,428,小
56,安針台第２公園,神奈川県横須賀市安針台17-16,街区公園,35.28197758,139.6422671,逸見エリア,6692,中
57,港町公園,神奈川県横須賀市汐入町2-10-11,街区公園,35.28167206,139.6599005,市役所エリア,606,小
58,東逸見２丁目公園,神奈川県横須賀市東逸見町2-6-3,街区公園,35.28137615,139.6529579,逸見エリア,407,小
59,諏訪公園,神奈川県横須賀市緑が丘33,近隣公園,35.28111427,139.6651442,市役所エリア,14884,大
60,大津１丁目公園,神奈川県横須賀市大津町1-1,街区公園,35.28105904,139.6680449,大津エリア,1000,中
61,西逸見公園,神奈川県横須賀市西逸見町2-9-5,街区公園,35.28083221,139.6479352,逸見エリア,259,小
62,汐入５丁目第２公園,神奈川県横須賀市汐入町5-45-12,街区公園,35.28002068,139.6557027,市役所エリア,1380,中
63,十三峠公園,神奈川県横須賀市山中町133-1,街区公園,35.27989839,139.6381733,逸見エリア,484,小
64,汐入５丁目公園,神奈川県横須賀市汐入町5-23-11,街区公園,35.27978107,139.6587341,市役所エリア,1114,中
65,汐入公園,神奈川県横須賀市汐入町2-38-5,街区公園,35.27870504,139.6613778,市役所エリア,136,小
66,平坂公園,神奈川県横須賀市若松町3-20,街区公園,35.27773339,139.6709756,市役所エリア,1116,中
67,東逸見３丁目公園,神奈川県横須賀市東逸見町3-14-32,街区公園,35.27500599,139.6517388,逸見エリア,434,小
68,緒明山公園,神奈川県横須賀市上町1-59-1,街区公園,35.27492191,139.6682349,市役所エリア,5529,中
69,坂本１丁目第２公園,神奈川県横須賀市坂本町1-6-8,街区公園,35.27367262,139.6586114,市役所エリア,1844,中
70,逸見が丘公園,神奈川県横須賀市逸見が丘50-29,街区公園,35.27253415,139.6495145,逸見エリア,3255,中
71,安浦公園,神奈川県横須賀市安浦町2-1,街区公園,35.2725193,139.6773932,市役所エリア,1220,中
72,安浦２丁目公園,神奈川県横須賀市安浦町2-33-7,街区公園,35.27220713,139.6799947,市役所エリア,2001,中
73,東逸見４丁目公園,神奈川県横須賀市東逸見町4-16-76,街区公園,35.27204308,139.6451373,逸見エリア,536,小
74,逸見が丘第３公園,神奈川県横須賀市逸見が丘6-23,街区公園,35.2716213,139.6496509,逸見エリア,1633,中
75,豊の坪公園,神奈川県横須賀市上町4-74-4,街区公園,35.27140371,139.6665918,市役所エリア,1475,中
76,坂本１丁目公園,神奈川県横須賀市坂本町1-44-14,街区公園,35.2710149,139.656914,市役所エリア,492,小
77,逸見が丘第２公園,神奈川県横須賀市逸見が丘11-2,街区公園,35.27098806,139.6464213,逸見エリア,4673,中
78,池上７丁目第２公園,神奈川県横須賀市池上7地内,街区公園,35.27064957,139.6458367,衣笠エリア,4145,中
79,池上７丁目公園,神奈川県横須賀市池上7-31,街区公園,35.27055193,139.6433432,衣笠エリア,3352,中
80,坂本３丁目公園,神奈川県横須賀市坂本町3-10-27,街区公園,35.26948719,139.655219,市役所エリア,2277,中
81,上町３丁目公園,神奈川県横須賀市上町3-33-2,街区公園,35.26948597,139.6707413,市役所エリア,556,小
82,安浦第２公園,神奈川県横須賀市安浦町3-27,街区公園,35.2689501,139.680158,市役所エリア,173,小
83,桜が丘公園,神奈川県横須賀市坂本町5-7-74,街区公園,35.26818973,139.6518029,市役所エリア,4551,中
84,池上１丁目公園,神奈川県横須賀市池上1-3988,街区公園,35.26805678,139.6475926,衣笠エリア,1929,中
85,池上７丁目第３公園,神奈川県横須賀市池上7地内,近隣公園,35.26793989,139.6431408,衣笠エリア,14879,大
86,不入斗３丁目公園,神奈川県横須賀市不入斗町3-18-14,街区公園,35.26793421,139.6584982,市役所エリア,1640,中
87,鶴が丘２丁目公園,神奈川県横須賀市鶴が丘2-13-4,街区公園,35.2672805,139.6576349,市役所エリア,318,小
88,富士見公園,神奈川県横須賀市富士見町1-60-3,街区公園,35.26669679,139.6765721,市役所エリア,1657,中
89,坂本台公園,神奈川県横須賀市鶴が丘2-31-152,街区公園,35.26637139,139.6563214,市役所エリア,5809,中
90,宇東川公園,神奈川県横須賀市佐野町1-34-1,街区公園,35.26582863,139.6698385,市役所エリア,1857,中
91,池上公園,神奈川県横須賀市池上5-3950-9,街区公園,35.26555453,139.644468,衣笠エリア,999,小
92,金谷第２公園,神奈川県横須賀市金谷1-630-1,街区公園,35.26544516,139.6513969,衣笠エリア,1031,中
93,衣笠栄町４丁目公園,神奈川県横須賀市衣笠栄町4-4,街区公園,35.26516999,139.6557877,衣笠エリア,2609,中
94,金谷２丁目第３公園,神奈川県横須賀市金谷2-409-48,街区公園,35.26510834,139.654265,衣笠エリア,905,小
95,旗山崎公園,神奈川県横須賀市走水2-698,特殊公園（風致公園、動植物公園、歴史公園、墓園）,35.26507637,139.7310503,大津エリア,14693,大
96,汐見台３丁目公園,神奈川県横須賀市汐見台3-24-58,街区公園,35.26456284,139.6638763,市役所エリア,371,小
97,金谷２丁目第２公園,神奈川県横須賀市金谷2-409-47,街区公園,35.26445639,139.6543017,衣笠エリア,959,小
98,金谷２丁目公園,神奈川県横須賀市金谷2-409-44,街区公園,35.26413226,139.653715,衣笠エリア,2044,中
99,走水２丁目公園,神奈川県横須賀市走水2-775-5,街区公園,35.26367298,139.7307921,大津エリア,188,小
100,金谷公園,神奈川県横須賀市金谷1-487-2,街区公園,35.26367061,139.6512796,衣笠エリア,578,小
101,汐見台公園,神奈川県横須賀市汐見台3-1-13,街区公園,35.26363433,139.6636569,市役所エリア,1156,中
102,馬堀海岸公園,神奈川県横須賀市馬堀海岸2-27,街区公園,35.26292928,139.7062679,大津エリア,17082,大
103,大津３丁目緑地,神奈川県横須賀市大津町3-51-7,その他,35.26238343,139.6972812,大津エリア,2873,中
104,馬堀海岸１丁目公園,神奈川県横須賀市馬堀海岸1-30-1,街区公園,35.26215169,139.7017772,大津エリア,5185,中
105,阿部倉公園,神奈川県横須賀市阿部倉1506-1,街区公園,35.26191554,139.641039,衣笠エリア,657,小
106,馬堀海岸３丁目公園,神奈川県横須賀市馬堀海岸3-28,街区公園,35.2618199,139.7114492,大津エリア,4651,中
107,衣笠栄町４丁目第２公園,神奈川県横須賀市衣笠栄町4-5,街区公園,35.26180252,139.6562916,衣笠エリア,573,小
108,三春６丁目公園,神奈川県横須賀市三春町6-95-18,街区公園,35.26162156,139.681531,市役所エリア,1237,中
109,平作第２公園,神奈川県横須賀市平作8-3461,街区公園,35.2615625,139.6500777,衣笠エリア,1254,中
110,三春５丁目第２公園,神奈川県横須賀市三春町5-9,街区公園,35.2614938,139.6852956,市役所エリア,1979,中
111,池上３丁目公園,神奈川県横須賀市池上3-3629-2,街区公園,35.26146507,139.6464908,衣笠エリア,815,小
112,望洋台公園,神奈川県横須賀市望洋台36-357,街区公園,35.26139228,139.6657876,市役所エリア,1963,中
113,衣笠栄町第２公園,神奈川県横須賀市衣笠栄町3-67,街区公園,35.26133012,139.6603086,衣笠エリア,305,小
114,すみれ公園,神奈川県横須賀市平作8-3535,街区公園,35.26102512,139.6493971,衣笠エリア,1854,中
115,馬堀海岸２丁目公園,神奈川県横須賀市馬堀海岸2-24,街区公園,35.26087029,139.7037711,大津エリア,999,小
116,公郷６丁目公園,神奈川県横須賀市公郷町6-20,街区公園,35.26074265,139.6774139,衣笠エリア,2498,中
117,三春５丁目第３公園,神奈川県横須賀市三春町5-29-28,街区公園,35.26073701,139.687122,市役所エリア,1143,中
118,馬堀海岸２丁目第２公園,神奈川県横須賀市馬堀海岸2-28,街区公園,35.26055445,139.7060915,大津エリア,1673,中
119,大津５丁目公園,神奈川県横須賀市大津町5-47,街区公園,35.26039773,139.6963036,大津エリア,346,小
120,走水公園,神奈川県横須賀市走水2-950-30,街区公園,35.26031961,139.7344353,大津エリア,2765,中
121,衣笠栄町２丁目公園,神奈川県横須賀市衣笠栄町2-56,街区公園,35.26014092,139.6622525,衣笠エリア,946,小
122,平作公園,神奈川県横須賀市平作7-3120-1,街区公園,35.26003524,139.6535284,衣笠エリア,3926,中
123,馬堀海岸４丁目公園,神奈川県横須賀市馬堀海岸4-88,街区公園,35.25994179,139.7122795,大津エリア,1765,中
124,大津おりょうさん公園（旧大津３丁目）,神奈川県横須賀市大津町3-51-2,街区公園,35.25972906,139.6861789,大津エリア,424,小
125,栄地谷公園,神奈川県横須賀市平作5-1544-65,街区公園,35.25950395,139.6466915,衣笠エリア,1261,中
126,三春５丁目公園,神奈川県横須賀市三春町5-72-1,街区公園,35.25938457,139.6832717,市役所エリア,1029,中
127,馬堀３丁目第２公園,神奈川県横須賀市馬堀町3-30-47,街区公園,35.25914695,139.7125964,大津エリア,139,小
128,馬堀４丁目公園,神奈川県横須賀市馬堀町4-5,街区公園,35.25900949,139.7141531,大津エリア,124,小
129,公郷第６公園,神奈川県横須賀市公郷町5-46-36,街区公園,35.25892932,139.6790223,衣笠エリア,400,小
130,公郷３丁目公園,神奈川県横須賀市公郷町3-60-61,街区公園,35.25867407,139.6728826,衣笠エリア,2412,中
131,矢の津公園,神奈川県横須賀市馬堀町2-35,街区公園,35.25867259,139.7058058,大津エリア,1370,中
132,馬堀４丁目第２公園,神奈川県横須賀市馬堀町4-5-134,街区公園,35.25865491,139.7145624,大津エリア,119,小
133,馬堀３丁目公園,神奈川県横須賀市馬堀町3-78-88,街区公園,35.25851064,139.7077404,大津エリア,970,小
134,衣笠栄町公園,神奈川県横須賀市衣笠栄町3-1-1,街区公園,35.25850929,139.6581953,衣笠エリア,3571,中
135,衣笠栄町１丁目公園,神奈川県横須賀市衣笠栄町1-45,街区公園,35.25838061,139.6636668,衣笠エリア,1174,中
136,馬堀４丁目第３公園,神奈川県横須賀市馬堀町4-5,街区公園,35.25832565,139.7156176,大津エリア,230,小
137,桜が丘１丁目第２公園,神奈川県横須賀市桜が丘1-41,街区公園,35.25827672,139.7020528,大津エリア,4621,中
138,公郷第２公園,神奈川県横須賀市公郷町3-92,街区公園,35.25825574,139.6738558,衣笠エリア,1313,中
139,公郷第５公園,神奈川県横須賀市公郷町5-111-3,街区公園,35.25812932,139.6794002,衣笠エリア,962,小
140,平作１丁目たぶのき公園,神奈川県横須賀市平作1-2953,街区公園,35.25731438,139.6523378,衣笠エリア,1423,中
141,小原台第４公園,神奈川県横須賀市小原台1583,街区公園,35.25717593,139.7288305,浦賀エリア,1438,中
142,公郷４丁目公園,神奈川県横須賀市公郷町4-65,街区公園,35.25709241,139.6752767,衣笠エリア,953,小
143,根岸第５公園,神奈川県横須賀市根岸町5-76,街区公園,35.25683836,139.6842848,大津エリア,992,小
144,小原台第２公園,神奈川県横須賀市小原台2097,街区公園,35.2567144,139.7270852,浦賀エリア,785,小
145,小原台第５公園,神奈川県横須賀市小原台1674,街区公園,35.25661815,139.7288686,浦賀エリア,150,小
146,湘南国際村１丁目公園,神奈川県横須賀市湘南国際村1-3209,街区公園,35.25659673,139.6092409,西エリア,8500,中
147,小原台第３公園,神奈川県横須賀市小原台2097,街区公園,35.25642243,139.7278049,浦賀エリア,513,小
148,公郷第３公園,神奈川県横須賀市公郷町3-121-4,街区公園,35.25638475,139.6723827,衣笠エリア,976,小
149,池田１丁目第４公園,神奈川県横須賀市池田町1-6,街区公園,35.25619076,139.6958474,大津エリア,1892,中
150,浦賀１丁目公園,神奈川県横須賀市浦賀1-2,街区公園,35.25618798,139.7093816,浦賀エリア,1002,中
151,桜が丘２丁目第３公園,神奈川県横須賀市桜が丘2-13-1,街区公園,35.25603363,139.7083058,大津エリア,5184,中
152,貞昌寺公園,神奈川県横須賀市馬堀町1-93,街区公園,35.25586723,139.6980844,大津エリア,1527,中
153,公郷公園,神奈川県横須賀市公郷町2-14,街区公園,35.25582689,139.668196,衣笠エリア,689,小
154,鴨居３丁目公園,神奈川県横須賀市鴨居3-961,街区公園,35.25568514,139.734422,浦賀エリア,7051,中
155,桜が丘２丁目第２公園,神奈川県横須賀市桜が丘2-92,街区公園,35.25560996,139.7036857,大津エリア,867,小
156,桜が丘２丁目公園,神奈川県横須賀市桜が丘2-5,街区公園,35.25560112,139.705459,大津エリア,2970,中
157,鴨居３丁目第３公園,神奈川県横須賀市鴨居3-1359,街区公園,35.25556611,139.7316488,浦賀エリア,663,小
158,浦上台トンネルの上公園,神奈川県横須賀市浦上台3-52,街区公園,35.25550975,139.7138651,浦賀エリア,1293,中
159,桜が丘１丁目第３公園,神奈川県横須賀市桜が丘1-91,街区公園,35.25548777,139.7023804,大津エリア,2036,中
160,公郷第４公園,神奈川県横須賀市公郷町1-51-1,街区公園,35.25510911,139.671757,衣笠エリア,1376,中
161,根岸第２公園,神奈川県横須賀市根岸町4-15,街区公園,35.25485349,139.6795945,大津エリア,2395,中
162,桜が丘１丁目公園,神奈川県横須賀市桜が丘1-35,街区公園,35.2548252,139.7000603,大津エリア,4669,中
163,池田１丁目第３公園,神奈川県横須賀市池田町1-6,街区公園,35.25467087,139.6958613,大津エリア,3145,中
164,つくし公園,神奈川県横須賀市公郷町4-9,街区公園,35.2546447,139.6752459,衣笠エリア,1652,中
165,小原台公園,神奈川県横須賀市小原台25,街区公園,35.25458399,139.7271276,浦賀エリア,1534,中
166,二葉１丁目公園,神奈川県横須賀市二葉1-2196,街区公園,35.25378085,139.7203008,浦賀エリア,350,小
167,浦賀公園,神奈川県横須賀市浦上台2-27,街区公園,35.25357801,139.7121806,浦賀エリア,1490,中
168,池田１丁目公園,神奈川県横須賀市池田町1-65,街区公園,35.25346006,139.6934225,大津エリア,3261,中
169,鴨居１丁目公園,神奈川県横須賀市鴨居1-21,街区公園,35.25265382,139.7263899,浦賀エリア,2261,中
170,吉井４丁目公園,神奈川県横須賀市吉井4-8,街区公園,35.25264034,139.7016554,浦賀エリア,1998,中
171,鴨居３丁目第２公園,神奈川県横須賀市鴨居3-777,街区公園,35.25219815,139.7349016,浦賀エリア,642,小
172,浦賀３丁目公園,神奈川県横須賀市浦賀3-4,街区公園,35.2521927,139.7094375,浦賀エリア,1312,中
173,小矢部１丁目第２公園,神奈川県横須賀市小矢部1-1366,街区公園,35.2518994,139.6698295,衣笠エリア,5640,中
174,池田１丁目第２公園,神奈川県横須賀市池田町1-44,街区公園,35.25176777,139.694029,大津エリア,3248,中
175,根岸第３公園,神奈川県横須賀市根岸町3-18,街区公園,35.25154425,139.6818242,大津エリア,2200,中
176,根岸第４公園,神奈川県横須賀市根岸町1-55,街区公園,35.25143689,139.6864342,大津エリア,2299,中
177,森崎２丁目公園,神奈川県横須賀市森崎2-399,街区公園,35.25113876,139.6781093,衣笠エリア,1219,中
178,みかん台公園,神奈川県横須賀市鴨居1-2547,街区公園,35.25107854,139.7285353,浦賀エリア,1780,中
179,浦賀３丁目第２公園,神奈川県横須賀市浦賀3-30,街区公園,35.25098661,139.7107079,浦賀エリア,1779,中
180,鴨居公園,神奈川県横須賀市鴨居3-691,街区公園,35.2509635,139.7316824,浦賀エリア,1753,中
181,立野公園,神奈川県横須賀市二葉1-2196,街区公園,35.25085443,139.7229395,浦賀エリア,2948,中
182,吉井４丁目第２公園,神奈川県横須賀市吉井4-18,街区公園,35.25073583,139.7040336,浦賀エリア,8686,中
183,吉井３丁目公園,神奈川県横須賀市吉井3-16,街区公園,35.25065843,139.6986947,浦賀エリア,797,小
184,秋谷公園,神奈川県横須賀市秋谷4540,街区公園,35.25063333,139.5920937,西エリア,625,小
185,みかん台第２公園,神奈川県横須賀市鴨居1-2578,街区公園,35.25059698,139.7271731,浦賀エリア,621,小
186,秋谷第２公園,神奈川県横須賀市秋谷5260,街区公園,35.2504551,139.5911415,西エリア,1037,中
187,池田３丁目公園,神奈川県横須賀市池田町3-9,街区公園,35.25024995,139.6949862,大津エリア,12950,大
188,小矢部１丁目第３公園,神奈川県横須賀市小矢部1-1369,街区公園,35.25003543,139.6697143,衣笠エリア,1409,中
189,早稲田公園,神奈川県横須賀市二葉2-2277,街区公園,35.24958725,139.7208543,浦賀エリア,1174,中
190,池田第２公園,神奈川県横須賀市池田町6-49,街区公園,35.24957157,139.6929085,大津エリア,245,小
191,森崎公園,神奈川県横須賀市森崎1-7-12,街区公園,35.2495285,139.6825036,衣笠エリア,1141,中
192,池田公園,神奈川県横須賀市池田町2-11,街区公園,35.24931585,139.6940122,大津エリア,664,小
193,浦賀５丁目第４公園,神奈川県横須賀市浦賀5-60,街区公園,35.24919839,139.7096895,浦賀エリア,1352,中
194,森崎６丁目公園,神奈川県横須賀市森崎6-1287,街区公園,35.24910378,139.6730675,衣笠エリア,643,小
195,吉井２丁目第３公園,神奈川県横須賀市吉井2-14,街区公園,35.24906302,139.7020913,浦賀エリア,998,小
196,池田第３公園,神奈川県横須賀市池田町6-80,街区公園,35.24863359,139.6904096,大津エリア,1137,中
197,鴨居２丁目第２公園,神奈川県横須賀市鴨居2-286,街区公園,35.24825356,139.7303533,浦賀エリア,591,小
198,森崎４丁目公園,神奈川県横須賀市森崎4-1731,街区公園,35.24801568,139.6734952,衣笠エリア,1014,中
199,久留和公園,神奈川県横須賀市秋谷4424,街区公園,35.24799859,139.5926246,西エリア,1173,中
200,浦賀５丁目公園,神奈川県横須賀市浦賀5-33,街区公園,35.24798684,139.7048292,浦賀エリア,2282,中
201,鴨居１丁目第２公園,神奈川県横須賀市鴨居1-2825,街区公園,35.24791099,139.7251544,浦賀エリア,335,小
202,吉井２丁目第２公園,神奈川県横須賀市吉井2-7,街区公園,35.24778934,139.7003239,浦賀エリア,7436,中
203,池田第４公園,神奈川県横須賀市池田町6-61,街区公園,35.24769579,139.6896901,大津エリア,4914,中
204,浦賀５丁目第３公園,神奈川県横須賀市浦賀5-50,街区公園,35.24764574,139.7068836,浦賀エリア,1141,中
205,吉井１丁目公園,神奈川県横須賀市吉井1-161,街区公園,35.24746485,139.7034217,浦賀エリア,2484,中
206,山手中央公園,神奈川県横須賀市吉井2-5,近隣公園,35.24744281,139.6978708,浦賀エリア,10212,大
207,森崎６丁目第２公園,神奈川県横須賀市森崎6-1287,街区公園,35.24726811,139.6695732,衣笠エリア,1750,中
208,鴨居第４公園,神奈川県横須賀市鴨居2-157,街区公園,35.24719401,139.7283542,浦賀エリア,960,小
209,小矢部３丁目公園,神奈川県横須賀市小矢部3-1249,街区公園,35.24707011,139.6661829,衣笠エリア,435,小
210,池田第５公園,神奈川県横須賀市池田町6-90,街区公園,35.2469296,139.6908608,大津エリア,1866,中
211,浦賀５丁目第５公園,神奈川県横須賀市浦賀5-87,街区公園,35.24689399,139.709102,浦賀エリア,3968,中
212,森崎第２公園,神奈川県横須賀市森崎3-296,街区公園,35.2467583,139.6780925,衣笠エリア,1887,中
213,池田３丁目第２公園,神奈川県横須賀市池田町3-2,街区公園,35.24654585,139.6956838,大津エリア,7099,中
214,鴨居２丁目公園,神奈川県横須賀市鴨居2-296,街区公園,35.24628519,139.731214,浦賀エリア,395,小
215,二葉２丁目公園,神奈川県横須賀市二葉2-2977,街区公園,35.24625357,139.7229155,浦賀エリア,329,小
216,二葉２丁目第２公園,神奈川県横須賀市二葉2-2984,街区公園,35.24622975,139.7247833,浦賀エリア,393,小
217,池田３丁目第３公園,神奈川県横須賀市池田町3-1,街区公園,35.24597954,139.6936113,大津エリア,12148,大
218,池田諏の宮前公園,神奈川県横須賀市池田町2-46,街区公園,35.24597359,139.6921431,大津エリア,451,小
219,浦賀５丁目第２公園,神奈川県横須賀市浦賀5-42,街区公園,35.24592453,139.7054158,浦賀エリア,6179,中
220,吉井２丁目公園,神奈川県横須賀市吉井2-6,街区公園,35.24575839,139.6994951,浦賀エリア,13203,大
221,東浦賀１丁目公園,神奈川県横須賀市東浦賀1-49-10,街区公園,35.24572693,139.7200715,浦賀エリア,637,小
222,池田５丁目公園,神奈川県横須賀市池田町5-29,街区公園,35.24538027,139.6902273,大津エリア,1427,中
223,森崎５丁目公園,神奈川県横須賀市森崎5-121,街区公園,35.24532661,139.6668069,衣笠エリア,3110,中
224,森崎第３公園,神奈川県横須賀市森崎4-1748,街区公園,35.24529292,139.6735833,衣笠エリア,7110,中
225,浦賀丘２丁目公園,神奈川県横須賀市浦賀丘2-3,街区公園,35.24509887,139.7132098,浦賀エリア,2292,中
226,鴨居第２公園,神奈川県横須賀市鴨居2-142,街区公園,35.24455967,139.7279587,浦賀エリア,632,小
227,森崎３丁目公園,神奈川県横須賀市森崎3-405,街区公園,35.24455637,139.6755125,衣笠エリア,644,小
228,衣笠町公園,神奈川県横須賀市衣笠町28,街区公園,35.24398598,139.6608154,衣笠エリア,146,小
229,浦賀７丁目公園,神奈川県横須賀市浦賀7-1-1,街区公園,35.2439118,139.7148007,浦賀エリア,3958,中
230,衣笠住吉公園,神奈川県横須賀市衣笠町74,街区公園,35.24326589,139.6604224,衣笠エリア,2192,中
231,東浦賀２丁目公園,神奈川県横須賀市東浦賀2-70-10,街区公園,35.24312074,139.7240348,浦賀エリア,1533,中
232,鴨居第３公園,神奈川県横須賀市鴨居2-40,街区公園,35.24286091,139.7304755,浦賀エリア,2234,中
233,浦賀丘１丁目公園,神奈川県横須賀市浦賀丘1-29,街区公園,35.24264956,139.7103254,浦賀エリア,4769,中
234,舟倉２丁目公園,神奈川県横須賀市舟倉2-330,街区公園,35.2426386,139.6993227,久里浜エリア,820,小
235,浦賀丘１丁目第２公園,神奈川県横須賀市浦賀丘1-31,街区公園,35.24253043,139.7076392,浦賀エリア,675,小
236,浦賀丘３丁目公園,神奈川県横須賀市浦賀丘3-31,街区公園,35.24244432,139.715415,浦賀エリア,1336,中
237,大矢部公園,神奈川県横須賀市大矢部2-14,街区公園,35.24222784,139.6759791,衣笠エリア,3253,中
238,東浦賀公園,神奈川県横須賀市東浦賀2-70-4,街区公園,35.24165594,139.7252742,浦賀エリア,1052,中
239,浦賀ひまわり公園(旧西浦賀３丁目）,神奈川県横須賀市浦賀丘1-104-27,街区公園,35.2411042,139.7086197,浦賀エリア,953,小
240,佐原公園,神奈川県横須賀市佐原1-12,街区公園,35.24069116,139.6797629,久里浜エリア,1595,中
241,佐原３丁目公園,神奈川県横須賀市佐原3-4,街区公園,35.24064009,139.6841199,久里浜エリア,2027,中
242,光風台第２公園(旧西浦賀第２),神奈川県横須賀市光風台20,街区公園,35.24051233,139.7120961,浦賀エリア,1250,中
243,佐原４丁目公園,神奈川県横須賀市佐原4-2,街区公園,35.24032816,139.6846808,久里浜エリア,669,小
244,佐原４丁目第２公園,神奈川県横須賀市佐原4-7,街区公園,35.2397596,139.6871767,久里浜エリア,1005,中
245,大矢部第２公園,神奈川県横須賀市大矢部3-12-1,街区公園,35.23964235,139.6723522,衣笠エリア,1797,中
246,腹切松公園,神奈川県横須賀市大矢部5-855,街区公園,35.23953085,139.6706728,衣笠エリア,1029,中
247,光風台公園（旧西浦賀）,神奈川県横須賀市光風台20,街区公園,35.23948234,139.7091583,浦賀エリア,991,小
248,山科台公園,神奈川県横須賀市山科台23-14,近隣公園,35.23941305,139.6584048,西エリア,23035,大
249,大矢部３丁目第３公園,神奈川県横須賀市大矢部3-677-84,街区公園,35.23926192,139.6734931,衣笠エリア,259,小
250,佐原３丁目第２公園,神奈川県横須賀市佐原3-1172,街区公園,35.23922552,139.6811988,久里浜エリア,471,小
251,大矢部中尾公園,神奈川県横須賀市大矢部5-25-13,街区公園,35.23893913,139.6681304,衣笠エリア,751,小
252,秋谷２丁目公園,神奈川県横須賀市秋谷2-280,街区公園,35.2385517,139.6024154,西エリア,285,小
253,南浦賀公園,神奈川県横須賀市南浦賀4,街区公園,35.23854797,139.7150626,浦賀エリア,690,小
254,大矢部３丁目第２公園,神奈川県横須賀市大矢部3-22-1,街区公園,35.23854738,139.6775236,衣笠エリア,1000,中
255,若風公園（旧舟倉第２）,神奈川県横須賀市光風台1,街区公園,35.23822865,139.7082199,浦賀エリア,3335,中
256,佐原４丁目第３公園,神奈川県横須賀市佐原4-235,街区公園,35.23793599,139.6907316,久里浜エリア,1669,中
257,光風台第３公園（旧西浦賀第３）,神奈川県横須賀市光風台20,街区公園,35.23777063,139.7110397,浦賀エリア,2094,中
258,西浦賀海岸公園,神奈川県横須賀市西浦賀4-8,街区公園,35.23763836,139.7216505,浦賀エリア,1563,中
259,若宮台第２公園（旧舟倉第３）,神奈川県横須賀市若宮台2017,街区公園,35.23750365,139.7026143,久里浜エリア,501,小
260,若宮台公園（旧舟倉）,神奈川県横須賀市若宮台90,街区公園,35.23673236,139.704872,久里浜エリア,926,小
261,南浦賀第２公園,神奈川県横須賀市南浦賀15,街区公園,35.23670047,139.7145097,浦賀エリア,611,小
262,久比里１丁目公園,神奈川県横須賀市久比里1-433,街区公園,35.23643517,139.7079764,久里浜エリア,636,小
263,大矢部３丁目公園,神奈川県横須賀市大矢部3-582-13,街区公園,35.23630945,139.675352,衣笠エリア,3559,中
264,秋谷１丁目公園,神奈川県横須賀市秋谷1-724,街区公園,35.23591407,139.6078516,西エリア,243,小
265,大矢部４丁目公園,神奈川県横須賀市大矢部4-553-120,街区公園,35.23577351,139.6742228,衣笠エリア,401,小
266,久里浜台１丁目公園,神奈川県横須賀市久里浜台1-18,街区公園,35.23542188,139.7139702,久里浜エリア,1612,中
267,久里浜台２丁目公園,神奈川県横須賀市久里浜台2-25,街区公園,35.23514605,139.7161056,久里浜エリア,1131,中
268,久比里公園,神奈川県横須賀市久比里2-392,街区公園,35.23484738,139.7078047,久里浜エリア,258,小
269,佐原３丁目第３公園,神奈川県横須賀市佐原3-1328,街区公園,35.23474388,139.6793715,久里浜エリア,1286,中
270,佐原太郎崎公園,神奈川県横須賀市佐原5-285,街区公園,35.23468243,139.6936692,久里浜エリア,625,小
271,久里浜台２丁目第２公園,神奈川県横須賀市久里浜台2-33,街区公園,35.2334474,139.7149221,久里浜エリア,3316,中
272,岩戸４丁目第２公園,神奈川県横須賀市岩戸4-73,街区公園,35.23244762,139.6704656,久里浜エリア,697,小
273,岩戸５丁目公園,神奈川県横須賀市岩戸5-10,街区公園,35.2319387,139.6649535,久里浜エリア,4340,中
274,久里浜２丁目第２公園,神奈川県横須賀市久里浜2-2,街区公園,35.23117452,139.6962966,久里浜エリア,473,小
275,長瀬公園,神奈川県横須賀市長瀬2-162,街区公園,35.23055229,139.7175649,久里浜エリア,3081,中
276,久里浜２丁目公園,神奈川県横須賀市久里浜2-18,街区公園,35.23043378,139.6980377,久里浜エリア,336,小
277,久里浜５丁目第２公園,神奈川県横須賀市久里浜5-1790,街区公園,35.23026683,139.7061864,久里浜エリア,784,小
278,長坂公園,神奈川県横須賀市長坂3-2035,街区公園,35.23006808,139.6302615,西エリア,4541,中
279,武１丁目第５公園,神奈川県横須賀市武1-1281,街区公園,35.23005706,139.6543499,西エリア,302,小
280,武１丁目第４公園,神奈川県横須賀市武1-2044,街区公園,35.22997758,139.6555929,西エリア,178,小
281,粟田１丁目第３公園,神奈川県横須賀市粟田1-1312,街区公園,35.22984218,139.6796972,北下浦エリア,594,小
282,佐島の丘第４公園,神奈川県横須賀市佐島の丘1-1-3,近隣公園,35.22956181,139.6162232,西エリア,14066,大
283,八幡公園,神奈川県横須賀市久里浜4-74,街区公園,35.22952459,139.7019697,久里浜エリア,927,小
284,芦名１丁目公園,神奈川県横須賀市芦名1-375,街区公園,35.22947665,139.6036375,西エリア,197,小
285,武５丁目第３公園,神奈川県横須賀市武5-1142,街区公園,35.22947546,139.6492498,西エリア,4960,中
286,岩戸４丁目公園,神奈川県横須賀市岩戸4-58,街区公園,35.22939266,139.6702766,久里浜エリア,6163,中
287,武１丁目第３公園,神奈川県横須賀市武1-1317,街区公園,35.22920157,139.6527545,西エリア,168,小
288,長瀬第２公園,神奈川県横須賀市長瀬1-13,街区公園,35.22841736,139.7162022,久里浜エリア,378,小
289,岩戸３丁目公園,神奈川県横須賀市岩戸3-364,街区公園,35.22841333,139.6745445,久里浜エリア,13054,大
290,岩戸３丁目第２公園,神奈川県横須賀市岩戸3-364,街区公園,35.22832273,139.6722864,久里浜エリア,686,小
291,長瀬第３公園,神奈川県横須賀市長瀬1-9,街区公園,35.22827248,139.7152499,久里浜エリア,1144,中
292,武１丁目第２公園,神奈川県横須賀市武1-1843,街区公園,35.22821576,139.6553144,西エリア,404,小
293,長瀬第４公園,神奈川県横須賀市長瀬1-3,街区公園,35.22816715,139.7140202,久里浜エリア,601,小
294,久里浜５丁目公園,神奈川県横須賀市久里浜5-621,街区公園,35.22814501,139.7051458,久里浜エリア,379,小
295,粟田１丁目公園,神奈川県横須賀市粟田1-1228,街区公園,35.22810056,139.6803042,北下浦エリア,2146,中
296,粟田１丁目第２公園,神奈川県横須賀市粟田1-1257-46,街区公園,35.22799694,139.6774403,北下浦エリア,568,小
297,ハイランド３丁目第２公園,神奈川県横須賀市ハイランド3-1336,街区公園,35.22784992,139.6850511,久里浜エリア,717,小
298,武５丁目第２公園,神奈川県横須賀市武5-1108,街区公園,35.22778498,139.6476436,西エリア,1516,中
299,佐島の丘第３公園,神奈川県横須賀市佐島の丘2-757,街区公園,35.22775565,139.6105437,西エリア,1072,中
300,武５丁目公園,神奈川県横須賀市武5-1033,街区公園,35.22768734,139.6444897,西エリア,1160,中
301,長坂第２公園,神奈川県横須賀市長坂3-790,街区公園,35.22746537,139.6273832,西エリア,1827,中
302,武１丁目公園,神奈川県横須賀市武1-1520,街区公園,35.22728614,139.6516344,西エリア,755,小
303,粟田２丁目第５公園,神奈川県横須賀市粟田2-1247,街区公園,35.2270599,139.678851,北下浦エリア,944,小
304,長坂第３公園,神奈川県横須賀市長坂3-790,街区公園,35.22701939,139.62552,西エリア,1874,中
305,久里浜公園,神奈川県横須賀市久里浜6-642-6,街区公園,35.22662477,139.7071511,久里浜エリア,5871,中
306,八幡第２公園,神奈川県横須賀市久里浜3-93,街区公園,35.22655668,139.6985089,久里浜エリア,2106,中
307,粟田２丁目第３公園,神奈川県横須賀市粟田2-1209,街区公園,35.22622701,139.6820271,北下浦エリア,1100,中
308,久里浜６丁目公園,神奈川県横須賀市久里浜6-1720,街区公園,35.22605503,139.7065172,久里浜エリア,993,小
309,ハイランド３丁目公園,神奈川県横須賀市ハイランド3-1427,街区公園,35.2260182,139.687881,久里浜エリア,946,小
310,粟田２丁目第６公園,神奈川県横須賀市粟田2-1274,街区公園,35.22593313,139.6776793,北下浦エリア,1341,中
311,佐島の丘第２公園,神奈川県横須賀市佐島の丘1-249,街区公園,35.22567714,139.615015,西エリア,2401,中
312,久里浜３丁目公園,神奈川県横須賀市久里浜3-182,街区公園,35.22555132,139.6957225,久里浜エリア,4383,中
313,粟田２丁目第２公園,神奈川県横須賀市粟田2-1198,街区公園,35.22548861,139.6827942,北下浦エリア,267,小
314,光の丘第２公園,神奈川県横須賀市光の丘4164,近隣公園,35.22545988,139.6683586,北下浦エリア,10668,大
315,佐島の丘公園,神奈川県横須賀市佐島の丘2-856,近隣公園,35.22543173,139.6127563,西エリア,14347,大
316,粟田２丁目第４公園,神奈川県横須賀市粟田2-1243,街区公園,35.22525343,139.6799982,北下浦エリア,2032,中
317,武４丁目第２公園,神奈川県横須賀市武4-971,街区公園,35.22494579,139.6420155,西エリア,789,小
318,武４丁目第３公園,神奈川県横須賀市武4-971,街区公園,35.2249246,139.6441932,西エリア,993,小
319,荻野公園,神奈川県横須賀市荻野230,街区公園,35.22472261,139.6295406,西エリア,1376,中
320,ハイランド５丁目公園,神奈川県横須賀市ハイランド5-1618,街区公園,35.22470895,139.6935375,久里浜エリア,1748,中
321,太田和２丁目公園,神奈川県横須賀市太田和2-1962,街区公園,35.22437686,139.6316687,西エリア,2051,中
322,武４丁目公園,神奈川県横須賀市武4-1011,街区公園,35.22364892,139.6435814,西エリア,330,小
323,粟田２丁目公園,神奈川県横須賀市粟田2-1148,街区公園,35.22335798,139.682662,北下浦エリア,233,小
324,ハイランド４丁目公園,神奈川県横須賀市ハイランド4-1492,街区公園,35.22311517,139.6924977,久里浜エリア,8429,中
325,太田和１丁目公園,神奈川県横須賀市太田和1-1071,街区公園,35.22257095,139.6367303,西エリア,1466,中
326,ハイランド１丁目第２公園,神奈川県横須賀市ハイランド1-1526,街区公園,35.22250325,139.6907814,久里浜エリア,3950,中
327,武山公園,神奈川県横須賀市林1-2209,街区公園,35.22201872,139.6408753,西エリア,2413,中
328,太田和１丁目第２公園,神奈川県横須賀市太田和1-1071,街区公園,35.22180092,139.6368271,西エリア,3231,中
329,ハイランド２丁目第２公園,神奈川県横須賀市ハイランド2-1131,街区公園,35.2217135,139.686781,久里浜エリア,2068,中
330,武３丁目公園,神奈川県横須賀市武3-138,街区公園,35.22141889,139.6432027,西エリア,1421,中
331,太田和１丁目第３公園,神奈川県横須賀市太田和1-1465,街区公園,35.22111279,139.6367338,西エリア,1175,中
332,林１丁目公園,神奈川県横須賀市林1-2455,街区公園,35.22082478,139.6379051,西エリア,460,小
333,太田和１丁目第４公園,神奈川県横須賀市太田和1-1465,街区公園,35.22067576,139.6367243,西エリア,1572,中
334,久里浜８丁目公園,神奈川県横須賀市久里浜8-11,街区公園,35.22061367,139.712061,久里浜エリア,1322,中
335,ハイランド１丁目公園,神奈川県横須賀市ハイランド1-1686,街区公園,35.2206,139.6931424,久里浜エリア,2533,中
336,ハイランド２丁目公園,神奈川県横須賀市ハイランド2-816,街区公園,35.22003059,139.6851485,久里浜エリア,801,小
337,林２丁目公園,神奈川県横須賀市林2-1151,街区公園,35.21989215,139.6398654,西エリア,973,小
338,神明第２公園,神奈川県横須賀市神明町1821,街区公園,35.21857361,139.7108867,久里浜エリア,7874,中
339,林２丁目第２公園,神奈川県横須賀市林2-1303,街区公園,35.21815953,139.6344928,西エリア,1029,中
340,野比しま田公園,神奈川県横須賀市野比1-1002-7,街区公園,35.21803207,139.683074,北下浦エリア,463,小
341,林３丁目第３公園,神奈川県横須賀市林3-881,街区公園,35.21729349,139.6416278,西エリア,745,小
342,林３丁目公園,神奈川県横須賀市林3-434,街区公園,35.21717697,139.6431967,西エリア,459,小
343,野比はなわ第２公園,神奈川県横須賀市野比3-1851-50,街区公園,35.21684256,139.691467,北下浦エリア,2416,中
344,林３丁目第２公園,神奈川県横須賀市林3-887,街区公園,35.21622298,139.6418808,西エリア,957,小
345,野比はなわ第３公園,神奈川県横須賀市野比3-1851-51,街区公園,35.21603821,139.689259,北下浦エリア,1439,中
346,野比はなわ公園,神奈川県横須賀市野比3-2005-9,街区公園,35.21583185,139.6920757,北下浦エリア,558,小
347,野比東ノ入公園,神奈川県横須賀市野比4-2500-6,街区公園,35.21512661,139.6981971,北下浦エリア,9136,中
348,野比松葉公園,神奈川県横須賀市野比3-2093-6,街区公園,35.21343536,139.6916774,北下浦エリア,6098,中
349,野比松葉第３公園,神奈川県横須賀市野比3-2076-4,街区公園,35.21310596,139.6930597,北下浦エリア,646,小
350,長沢台公園,神奈川県横須賀市長沢3-2025,街区公園,35.21299801,139.681513,北下浦エリア,1708,中
351,野比松葉第２公園,神奈川県横須賀市野比3-2094-4,街区公園,35.21279152,139.6914992,北下浦エリア,1792,中
352,長沢台第２公園,神奈川県横須賀市長沢3-1842,街区公園,35.21232364,139.6837574,北下浦エリア,3589,中
353,野比中村公園,神奈川県横須賀市野比2-325-22,街区公園,35.21194382,139.6877126,北下浦エリア,611,小
354,林５丁目公園,神奈川県横須賀市林5-1262-8,街区公園,35.21100575,139.6336461,西エリア,361,小
355,長沢４丁目公園,神奈川県横須賀市長沢4-1519,街区公園,35.21095713,139.6789997,北下浦エリア,453,小
356,野比志も公園,神奈川県横須賀市野比2-88-31,街区公園,35.21060384,139.6863106,北下浦エリア,404,小
357,長井岡崎第２公園,神奈川県横須賀市長井3-9-46,街区公園,35.20958741,139.6137476,西エリア,368,小
358,津久井公園,神奈川県横須賀市津久井5-2902,街区公園,35.20929285,139.6592985,北下浦エリア,498,小
359,長沢婦がらみ公園,神奈川県横須賀市長沢2-1811,街区公園,35.20902976,139.6838161,北下浦エリア,1045,中
360,長沢平田公園,神奈川県横須賀市長沢4-1533,街区公園,35.20888839,139.6789835,北下浦エリア,2525,中
361,長井岡崎公園,神奈川県横須賀市長井3-9-180,街区公園,35.20865521,139.6114132,西エリア,2316,中
362,富浦公園,神奈川県横須賀市長井1-1-2,近隣公園,35.20809759,139.6245952,西エリア,22697,大
363,津久井大畑公園,神奈川県横須賀市グリーンハイツ1972,街区公園,35.20797773,139.6677103,北下浦エリア,1027,中
364,長沢村岡公園,神奈川県横須賀市長沢1-1011-1,近隣公園,35.20796085,139.6729135,北下浦エリア,12845,大
365,野比海岸公園,神奈川県横須賀市野比2-194-13,街区公園,35.20769129,139.6859425,北下浦エリア,791,小
366,長沢殿前公園,神奈川県横須賀市グリーンハイツ550,街区公園,35.20655257,139.6715894,北下浦エリア,3270,中
367,長井屋形公園,神奈川県横須賀市長井5-2880-27,街区公園,35.20514891,139.6104501,西エリア,612,小
368,長沢七軒町公園,神奈川県横須賀市長沢1-363,街区公園,35.20452745,139.6753948,北下浦エリア,1086,中
369,長沢公園,神奈川県横須賀市長沢1-70,近隣公園,35.20233937,139.6721049,北下浦エリア,15313,大
370,長沢１丁目公園,神奈川県横須賀市長沢1-70,街区公園,35.20130496,139.6732571,北下浦エリア,317,小
371,大滝町公園,神奈川県横須賀市大滝町1-31-10,街区公園,35.28224,139.66884,市役所エリア,476,小
372,池上緑地,神奈川県横須賀市池上3-3567,その他,35.2616,139.64731,衣笠エリア,2155,中
373,池田６丁目公園(旧池田２丁目）,神奈川県横須賀市池田町6-55-1,街区公園,35.24889,139.69046,大津エリア,2524,中
374,市役所前公園,神奈川県横須賀市小川町9-1,その他,35.28125,139.67131,市役所エリア,3985,中
375,南郷公園,神奈川県横須賀市船越町4-6,街区公園,35.30131,139.62257,田浦エリア,4430,中
376,立石公園,神奈川県横須賀市秋谷3-1584,近隣公園,35.24071,139.60051,西エリア,4840,中
377,坂本公園,神奈川県横須賀市坂本町1-19,街区公園,35.27094,139.65829,市役所エリア,5838,中
378,愛宕山公園,神奈川県横須賀市西浦賀1-23,近隣公園,35.2406,139.71916,浦賀エリア,7200,中
379,ペリー公園,神奈川県横須賀市久里浜7-14,特殊公園（風致公園、動植物公園、歴史公園、墓園）,35.22481,139.71257,久里浜エリア,7145,中
380,湘南国際村緑地,神奈川県横須賀市湘南国際村2-3242,その他,35.2538,139.61501,西エリア,9118,中
381,小原台緑地,神奈川県横須賀市小原台2077,その他,35.25452,139.72662,浦賀エリア,10961,大
382,衣笠公園,神奈川県横須賀市平作1-2712-1,運動公園,35.257,139.65469,衣笠エリア,12124,大
383,三春公園,神奈川県横須賀市三春町2-1-8,街区公園,35.26786,139.68489,市役所エリア,13949,大
384,根岸公園,神奈川県横須賀市根岸町3-17,近隣公園,35.25299,139.68256,大津エリア,14284,大
385,湘南国際村西公園,神奈川県横須賀市湘南国際村1-3509-5,近隣公園,35.25455,139.60699,西エリア,20000,大
386,はまゆう公園,神奈川県横須賀市不入斗町4-25,近隣公園,35.27375,139.6638,市役所エリア,24664,大
387,神明公園,神奈川県横須賀市神明町1-8,近隣公園,35.22433,139.70073,久里浜エリア,25263,大
388,ヴェルニー公園,神奈川県横須賀市汐入町1-1-1,近隣公園,35.28447,139.65723,市役所エリア,27457,大
389,光の丘公園,神奈川県横須賀市光の丘3752-2,近隣公園,35.22462,139.67091,北下浦エリア,30662,大
390,太田和つつじの丘,神奈川県横須賀市太田和5-2638,その他,35.23215,139.6423,西エリア,33399,大
391,三笠公園,神奈川県横須賀市稲岡町82-14,特殊公園（風致公園、動植物公園、歴史公園、墓園）,35.29361,139.66524,市役所エリア,36940,大
392,しょうぶ園,神奈川県横須賀市阿部倉549,特殊公園（風致公園、動植物公園、歴史公園、墓園）,35.25644,139.63457,衣笠エリア,37597,大
393,中央公園,神奈川県横須賀市深田台19-1,近隣公園,35.27475,139.67236,市役所エリア,39329,大
394,西公園,神奈川県横須賀市武3-458-1,運動公園,35.2211,139.64709,西エリア,53348,大
395,大津公園,神奈川県横須賀市大津町5-11-2,運動公園,35.25811,139.6875,大津エリア,52987,大
396,荒崎公園,神奈川県横須賀市長井6-5320-3,特殊公園（風致公園、動植物公園、歴史公園、墓園）,35.19792,139.60767,西エリア,53158,大
397,猿島公園,神奈川県横須賀市猿島1,特殊公園（風致公園、動植物公園、歴史公園、墓園）,35.28606,139.69406,市役所エリア,56626,大
398,衣笠山公園,神奈川県横須賀市小矢部4-922,特殊公園（風致公園、動植物公園、歴史公園、墓園）,35.24826,139.66331,衣笠エリア,238885,特大
399,鷹取山公園,神奈川県横須賀市湘南鷹取3-3-520,特殊公園（風致公園、動植物公園、歴史公園、墓園）,35.30574,139.61787,追浜エリア,79227,大
400,追浜公園,神奈川県横須賀市夏島町2-2,運動公園,35.31829,139.63202,追浜エリア,87682,大
401,不入斗公園,神奈川県横須賀市不入斗町1-2-1,運動公園,35.26832,139.66328,市役所エリア,136504,特大
402,光の丘水辺公園,神奈川県横須賀市光の丘1177-2,その他,35.22462,139.67091,北下浦エリア,146049,特大
403,長井海の手公園,神奈川県横須賀市長井4-3491-3,総合公園,35.19649,139.61456,西エリア,212585,特大
404,田浦梅の里,神奈川県横須賀市田浦泉町92,その他,35.28382,139.62933,田浦エリア,462854,特大
405,くりはま花の国,神奈川県横須賀市神明町1-1,その他,35.22433,139.70073,久里浜エリア,583330,特大
406,くりはまみんなの公園,神奈川県横須賀市久里浜1-381-4,近隣公園,35.23442,139.69936,久里浜エリア,22628,大
407,安針台都市緑地,神奈川県横須賀市安針台4-9,その他,35.28939,139.64511,逸見エリア,2551,中
408,浦郷３丁目公園,神奈川県横須賀市浦郷町3-25-23,街区公園,35.31296,139.63408,追浜エリア,4222,中
409,夏島都市緑地,神奈川県横須賀市夏島町2-26,その他,35.31829,139.63202,追浜エリア,9330,中
410,公郷５丁目公園,神奈川県横須賀市公郷町5-62-6,街区公園,35.25766,139.68059,衣笠エリア,1501,中
411,公郷５丁目第２公園,神奈川県横須賀市公郷町5-62-38,街区公園,35.25766,139.68059,衣笠エリア,1419,中
412,根岸２丁目緑地,神奈川県横須賀市根岸町2-58,その他,35.25137,139.68881,大津エリア,4980,中
413,根岸緑地,神奈川県横須賀市根岸町5-42,その他,35.25575,139.68303,大津エリア,6020,中
414,佐原２丁目公園,神奈川県横須賀市佐原2-36-4,地区公園（カントリーパーク）,35.24343,139.68532,久里浜エリア,33939,大
415,佐原緩衝緑地,神奈川県横須賀市佐原4-355,その他,35.23607,139.68556,久里浜エリア,4656,中
416,桜が丘２丁目緑地,神奈川県横須賀市桜が丘2-107,その他,35.25585,139.70636,大津エリア,3897,中
417,桜が丘緑地,神奈川県横須賀市桜が丘1-60,その他,35.25572,139.70061,大津エリア,3635,中
418,三春緑地,神奈川県横須賀市三春町2-21-1,その他,35.26575,139.68466,市役所エリア,2799,中
419,若松公園,神奈川県横須賀市若松町3-32-11,街区公園,35.27815,139.67252,市役所エリア,426,小
420,秋谷緑地,神奈川県横須賀市秋谷1818,その他,35.25005,139.59595,西エリア,35762,大
421,小矢部１丁目第４公園,神奈川県横須賀市小矢部1-456-7,街区公園,35.25278,139.66913,衣笠エリア,508,小
422,湘南鷹取都市緑地,神奈川県横須賀市湘南鷹取6-77-176,その他,35.31524,139.61441,追浜エリア,2207,中
423,森崎３丁目第２公園,神奈川県横須賀市森崎3-307-108,街区公園,35.24579,139.67792,衣笠エリア,1762,中
424,森崎３丁目第３公園,神奈川県横須賀市森崎3-335-4,街区公園,35.24579,139.67792,衣笠エリア,625,小
425,西浦賀緑地,神奈川県横須賀市西浦賀5-60-1,その他,35.23571,139.71852,浦賀エリア,6604,中
426,船越８丁目第４公園,神奈川県横須賀市船越町8-10-73,街区公園,35.30597,139.63217,田浦エリア,497,小
427,池田１丁目緑地,神奈川県横須賀市池田町1-51,その他,35.25447,139.6946,大津エリア,4030,中
428,池田５丁目第２公園,神奈川県横須賀市池田町5-58-50,街区公園,35.24602,139.68867,大津エリア,3143,中
429,池田緑地,神奈川県横須賀市池田町1-23,その他,35.25567,139.69633,大津エリア,6596,中
430,長沢３丁目公園,神奈川県横須賀市長沢3-1857-27,街区公園,35.21173,139.68239,北下浦エリア,1384,中
431,追浜東町１丁目第５公園,神奈川県横須賀市追浜東町1-28-85,街区公園,35.30905,139.62912,追浜エリア,7091,中
432,追浜東町２丁目公園,神奈川県横須賀市追浜東町2-3-24,街区公園,35.31191,139.63043,追浜エリア,2263,中
433,東浦賀２丁目第２公園,神奈川県横須賀市東浦賀2-67-27,街区公園,35.24263,139.72346,浦賀エリア,450,小
434,破崎緑地,神奈川県横須賀市走水2-2-ｲ,その他,35.26522,139.72913,大津エリア,4775,中
435,馬堀海岸４丁目さんかく公園,神奈川県横須賀市馬堀海岸4-1-8,街区公園,35.26065,139.7124,大津エリア,1421,中
436,林４丁目公園,神奈川県横須賀市林4-781-1,街区公園,35.21417,139.63866,西エリア,2522,中
437,根岸１丁目公園,神奈川県横須賀市根岸町1-9-20,街区公園,35.25134,139.68585,大津エリア,1251,中
